[{"OBJECT_NAME":"STARLINK-32493","OBJECT_ID":"2024-213T","EPOCH":"2026-03-09T13:46:46.259328","MEAN_MOTION":15.30184851,"ECCENTRICITY":0.0001071,"INCLINATION":53.1579,"RA_OF_ASC_NODE":168.9104,"ARG_OF_PERICENTER":90.6637,"MEAN_ANOMALY":269.4487,"EPHEMERIS_TYPE":0,"CLASSIFICATION_TYPE":"U","NORAD_CAT_ID":62025,"ELEMENT_SET_NO":999,"REV_AT_EPOCH":7313,"BSTAR":0.00043778,"MEAN_MOTION_DOT":0.00012623,"MEAN_MOTION_DDOT":0},{"OBJECT_NAME":"OBJECT BE","OBJECT_ID":"2025-313BE","EPOCH":"2026-03-09T16:43:59.380320","MEAN_MOTION":15.29801687,"ECCENTRICITY":0.00072083,"INCLINATION":97.3989,"RA_OF_ASC_NODE":145.3568,"ARG_OF_PERICENTER":335.3714,"MEAN_ANOMALY":24.7181,"EPHEMERIS_TYPE":0,"CLASSIFICATION_TYPE":"U","NORAD_CAT_ID":67482,"ELEMENT_SET_NO":999,"REV_AT_EPOCH":797,"BSTAR":0.0026504328,"MEAN_MOTION_DOT":0.00077178,"MEAN_MOTION_DDOT":0}]
