STARLINK-32493          
1 62025U 24213T   26068.57414652  .00012623  00000+0  43778-3 0  9998
2 62025  53.1579 168.9104 0001071  90.6637 269.4487 15.30184851 73136
2025-313BE              
1 67482U 25313BE  26068.69721505  .00077178  00000+0  26504-2 0  9996
2 67482  97.3989 145.3568 0007208 335.3714  24.7181 15.29801687  7972
